ALOS-4 (DAICHI-4)       
1 60182U 24123A   24248.53052100  .00009343  00000+0  12558-2 0  9996
2 60182  97.9219 344.0509 0001534  99.0965 261.0420 14.79485721  9677
